0 SL-16 R/B
1 19120U 88039B   13282.51433569 -.00000169  00000-0 -58032-4 0  8880
2 19120 071.0147 289.9967 0019476 091.9699 074.5996 14.18979893315340
0 SL-16 R/B
1 19120U 88039B   13283.56571904 -.00000202  00000-0 -73623-4 0  8894
2 19120 071.0146 287.7757 0019491 090.2574 045.5083 14.18979966315495
0 SL-16 R/B
1 19120U 88039B   13286.46112302 -.00000119  00000-0 -33827-4 0  8911
2 19120 071.0144 281.6594 0019556 085.4818 076.5164 14.18978221315907
0 SL-16 R/B
1 19120U 88039B   13287.51493692 -.00000021  00000-0  12972-4 0  8922
2 19120 071.0145 279.4332 0019593 083.6796 059.9280 14.18977280316054
0 SL-16 R/B
1 19120U 88039B   13288.57128369  .00000089  00000-0  65355-4 0  8932
2 19120 071.0147 277.2017 0019646 081.8337 056.3161 14.18976370316207
0 SL-16 R/B
1 19120U 88039B   13290.18037973  .00000222  00000-0  12931-3 0  8943
2 19120 071.0151 273.8025 0019684 079.0921 356.3699 14.18975761316430
0 SL-16 R/B
1 19120U 88039B   13291.46321939  .00000257  00000-0  14596-3 0  8951
2 19120 071.0153 271.0927 0019728 076.8263 069.8199 14.18976035316612
0 SL-16 R/B
1 19120U 88039B   13292.51921995  .00000231  00000-0  13335-3 0  8969
2 19120 071.0156 268.8620 0019720 075.0077 064.4031 14.18976897316763
0 SL-16 R/B
1 19120U 88039B   13294.12754191  .00000124  00000-0  82416-4 0  8979
2 19120 071.0157 265.4648 0019741 072.1975 000.5648 14.18978843316998
0 SL-16 R/B
1 19120U 88039B   13295.18774282  .00000044  00000-0  44104-4 0  8983
2 19120 071.0158 263.2254 0019757 070.3461 016.6365 14.18980169317141
